HAWK-2B                 
1 47508U 21006CZ  26068.67629241  .00009474  00000+0  29651-3 0  9991
2 47508  97.2334 114.1140 0007102 185.9063 174.2098 15.33301353284246
STARLINK-31706          
1 59437U 24065S   26068.82458980  .00002224  00000+0  87188-4 0  9996
2 59437  53.1602 282.9322 0001147 104.9711 255.1417 15.30203305108928
