[{"OBJECT_NAME":"HAWK-2B","OBJECT_ID":"2021-006CZ","EPOCH":"2026-03-09T16:13:51.664224","MEAN_MOTION":15.33301353,"ECCENTRICITY":0.00071021,"INCLINATION":97.2334,"RA_OF_ASC_NODE":114.114,"ARG_OF_PERICENTER":185.9063,"MEAN_ANOMALY":174.2098,"EPHEMERIS_TYPE":0,"CLASSIFICATION_TYPE":"U","NORAD_CAT_ID":47508,"ELEMENT_SET_NO":999,"REV_AT_EPOCH":28424,"BSTAR":0.00029650607,"MEAN_MOTION_DOT":9.474e-5,"MEAN_MOTION_DDOT":0},{"OBJECT_NAME":"STARLINK-31706","OBJECT_ID":"2024-065S","EPOCH":"2026-03-09T19:47:24.559584","MEAN_MOTION":15.30203305,"ECCENTRICITY":0.00011469,"INCLINATION":53.1602,"RA_OF_ASC_NODE":282.9322,"ARG_OF_PERICENTER":104.9711,"MEAN_ANOMALY":255.1417,"EPHEMERIS_TYPE":0,"CLASSIFICATION_TYPE":"U","NORAD_CAT_ID":59437,"ELEMENT_SET_NO":999,"REV_AT_EPOCH":10892,"BSTAR":8.7188047e-5,"MEAN_MOTION_DOT":2.224e-5,"MEAN_MOTION_DDOT":0}]
